[{"OBJECT_NAME":"STARLINK-1363","OBJECT_ID":"2020-025AP","EPOCH":"2026-03-09T04:33:57.485088","MEAN_MOTION":15.76582535,"ECCENTRICITY":0.00083079,"INCLINATION":53.043,"RA_OF_ASC_NODE":40.2129,"ARG_OF_PERICENTER":56.0535,"MEAN_ANOMALY":304.1273,"EPHEMERIS_TYPE":0,"CLASSIFICATION_TYPE":"U","NORAD_CAT_ID":45568,"ELEMENT_SET_NO":999,"REV_AT_EPOCH":32597,"BSTAR":0.00073874012,"MEAN_MOTION_DOT":0.00121445,"MEAN_MOTION_DDOT":0},{"OBJECT_NAME":"STARLINK-36631","OBJECT_ID":"2026-018P","EPOCH":"2026-03-09T19:52:27.137568","MEAN_MOTION":15.75231411,"ECCENTRICITY":0.00014679,"INCLINATION":97.2835,"RA_OF_ASC_NODE":134.7101,"ARG_OF_PERICENTER":80.5798,"MEAN_ANOMALY":279.5633,"EPHEMERIS_TYPE":0,"CLASSIFICATION_TYPE":"U","NORAD_CAT_ID":67602,"ELEMENT_SET_NO":999,"REV_AT_EPOCH":733,"BSTAR":0.0015534846,"MEAN_MOTION_DOT":0.00238601,"MEAN_MOTION_DDOT":0}]
