STARLINK-1363           
1 45568U 20025AP  26068.19024867  .00121445  00000+0  73874-3 0  9994
2 45568  53.0430  40.2129 0008307  56.0535 304.1273 15.76582535325978
STARLINK-36631          
1 67602U 26018P   26068.82809186  .00238601  00000+0  15535-2 0  9992
2 67602  97.2835 134.7101 0001468  80.5798 279.5633 15.75231411  7338
